CCSDS_OMM_VERS = 2.0
CREATION_DATE  = 
ORIGINATOR     = 

OBJECT_NAME    = STARLINK-36616
OBJECT_ID      = 2026-022AA
CENTER_NAME    = EARTH
REF_FRAME      = TEME
TIME_SYSTEM    = UTC
MEAN_ELEMENT_THEORY = SGP/SGP4

EPOCH          = 2026-02-23T02:03:43.259040
MEAN_MOTION    = 15.75224481
ECCENTRICITY   = .00016714
INCLINATION    = 97.2856
RA_OF_ASC_NODE = 87.3966
ARG_OF_PERICENTER = 75.9129
MEAN_ANOMALY   = 284.2322

EPHEMERIS_TYPE = 0
CLASSIFICATION_TYPE = U
NORAD_CAT_ID   = 67672
ELEMENT_SET_NO = 999
REV_AT_EPOCH   = 325
BSTAR          = .75348889E-3
MEAN_MOTION_DOT = .11394E-2
MEAN_MOTION_DDOT = 0

CCSDS_OMM_VERS = 2.0
CREATION_DATE  = 
ORIGINATOR     = 

OBJECT_NAME    = COSMOS 2600
OBJECT_ID      = 2026-023A
CENTER_NAME    = EARTH
REF_FRAME      = TEME
TIME_SYSTEM    = UTC
MEAN_ELEMENT_THEORY = SGP/SGP4

EPOCH          = 2026-02-23T08:46:23.931264
MEAN_MOTION    = 15.83416876
ECCENTRICITY   = .0001642
INCLINATION    = 96.6456
RA_OF_ASC_NODE = 130.4572
ARG_OF_PERICENTER = 59.9565
MEAN_ANOMALY   = 300.1869

EPHEMERIS_TYPE = 0
CLASSIFICATION_TYPE = U
NORAD_CAT_ID   = 67674
ELEMENT_SET_NO = 999
REV_AT_EPOCH   = 278
BSTAR          = .47226E-3
MEAN_MOTION_DOT = .103079E-2
MEAN_MOTION_DDOT = 0

CCSDS_OMM_VERS = 2.0
CREATION_DATE  = 
ORIGINATOR     = 

OBJECT_NAME    = 2026-023B
OBJECT_ID      = 2026-023B
CENTER_NAME    = EARTH
REF_FRAME      = TEME
TIME_SYSTEM    = UTC
MEAN_ELEMENT_THEORY = SGP/SGP4

EPOCH          = 2026-02-23T11:03:37.274112
MEAN_MOTION    = 15.22615099
ECCENTRICITY   = .0018447
INCLINATION    = 96.6379
RA_OF_ASC_NODE = 129.0578
ARG_OF_PERICENTER = 180.6017
MEAN_ANOMALY   = 179.5202

EPHEMERIS_TYPE = 0
CLASSIFICATION_TYPE = U
NORAD_CAT_ID   = 67675
ELEMENT_SET_NO = 999
REV_AT_EPOCH   = 269
BSTAR          = .59248E-3
MEAN_MOTION_DOT = .13792E-3
MEAN_MOTION_DDOT = 0

CCSDS_OMM_VERS = 2.0
CREATION_DATE  = 
ORIGINATOR     = 

OBJECT_NAME    = 2026-023C
OBJECT_ID      = 2026-023C
CENTER_NAME    = EARTH
REF_FRAME      = TEME
TIME_SYSTEM    = UTC
MEAN_ELEMENT_THEORY = SGP/SGP4

EPOCH          = 2026-02-23T11:02:32.094816
MEAN_MOTION    = 15.22696535
ECCENTRICITY   = .0019658
INCLINATION    = 96.6416
RA_OF_ASC_NODE = 129.0754
ARG_OF_PERICENTER = 170.7276
MEAN_ANOMALY   = 189.4329

EPHEMERIS_TYPE = 0
CLASSIFICATION_TYPE = U
NORAD_CAT_ID   = 67676
ELEMENT_SET_NO = 999
REV_AT_EPOCH   = 285
BSTAR          = .6326E-3
MEAN_MOTION_DOT = .14777E-3
MEAN_MOTION_DDOT = 0

CCSDS_OMM_VERS = 2.0
CREATION_DATE  = 
ORIGINATOR     = 

OBJECT_NAME    = 2026-023D
OBJECT_ID      = 2026-023D
CENTER_NAME    = EARTH
REF_FRAME      = TEME
TIME_SYSTEM    = UTC
MEAN_ELEMENT_THEORY = SGP/SGP4

EPOCH          = 2026-02-23T09:30:00.181152
MEAN_MOTION    = 15.22538281
ECCENTRICITY   = .0019788
INCLINATION    = 96.6446
RA_OF_ASC_NODE = 129.0031
ARG_OF_PERICENTER = 176.0196
MEAN_ANOMALY   = 184.1204

EPHEMERIS_TYPE = 0
CLASSIFICATION_TYPE = U
NORAD_CAT_ID   = 67677
ELEMENT_SET_NO = 999
REV_AT_EPOCH   = 267
BSTAR          = .54845E-3
MEAN_MOTION_DOT = .12741E-3
MEAN_MOTION_DDOT = 0

CCSDS_OMM_VERS = 2.0
CREATION_DATE  = 
ORIGINATOR     = 

OBJECT_NAME    = 2026-023E
OBJECT_ID      = 2026-023E
CENTER_NAME    = EARTH
REF_FRAME      = TEME
TIME_SYSTEM    = UTC
MEAN_ELEMENT_THEORY = SGP/SGP4

EPOCH          = 2026-02-23T11:02:58.857216
MEAN_MOTION    = 15.22674365
ECCENTRICITY   = .0019613
INCLINATION    = 96.6339
RA_OF_ASC_NODE = 129.0537
ARG_OF_PERICENTER = 175.1773
MEAN_ANOMALY   = 184.9658

EPHEMERIS_TYPE = 0
CLASSIFICATION_TYPE = U
NORAD_CAT_ID   = 67678
ELEMENT_SET_NO = 999
REV_AT_EPOCH   = 268
BSTAR          = .65209E-3
MEAN_MOTION_DOT = .15224E-3
MEAN_MOTION_DDOT = 0

CCSDS_OMM_VERS = 2.0
CREATION_DATE  = 
ORIGINATOR     = 

OBJECT_NAME    = 2026-023F
OBJECT_ID      = 2026-023F
CENTER_NAME    = EARTH
REF_FRAME      = TEME
TIME_SYSTEM    = UTC
MEAN_ELEMENT_THEORY = SGP/SGP4

EPOCH          = 2026-02-23T11:00:39.834432
MEAN_MOTION    = 15.22816776
ECCENTRICITY   = .0021521
INCLINATION    = 96.6346
RA_OF_ASC_NODE = 131.5521
ARG_OF_PERICENTER = 170.1347
MEAN_ANOMALY   = 190.0319

EPHEMERIS_TYPE = 0
CLASSIFICATION_TYPE = U
NORAD_CAT_ID   = 67679
ELEMENT_SET_NO = 999
REV_AT_EPOCH   = 267
BSTAR          = .70584E-3
MEAN_MOTION_DOT = .16574E-3
MEAN_MOTION_DDOT = 0

CCSDS_OMM_VERS = 2.0
CREATION_DATE  = 
ORIGINATOR     = 

OBJECT_NAME    = 2026-023G
OBJECT_ID      = 2026-023G
CENTER_NAME    = EARTH
REF_FRAME      = TEME
TIME_SYSTEM    = UTC
MEAN_ELEMENT_THEORY = SGP/SGP4

EPOCH          = 2026-02-23T11:01:17.567040
MEAN_MOTION    = 15.22772847
ECCENTRICITY   = .002313
INCLINATION    = 96.6273
RA_OF_ASC_NODE = 131.5431
ARG_OF_PERICENTER = 166.6864
MEAN_ANOMALY   = 193.4990

EPHEMERIS_TYPE = 0
CLASSIFICATION_TYPE = U
NORAD_CAT_ID   = 67680
ELEMENT_SET_NO = 999
REV_AT_EPOCH   = 267
BSTAR          = .63976E-3
MEAN_MOTION_DOT = .1501E-3
MEAN_MOTION_DDOT = 0

CCSDS_OMM_VERS = 2.0
CREATION_DATE  = 
ORIGINATOR     = 

OBJECT_NAME    = 2026-023H
OBJECT_ID      = 2026-023H
CENTER_NAME    = EARTH
REF_FRAME      = TEME
TIME_SYSTEM    = UTC
MEAN_ELEMENT_THEORY = SGP/SGP4

EPOCH          = 2026-02-23T09:26:26.830176
MEAN_MOTION    = 15.22749305
ECCENTRICITY   = .0023141
INCLINATION    = 96.6419
RA_OF_ASC_NODE = 131.4991
ARG_OF_PERICENTER = 166.2844
MEAN_ANOMALY   = 193.9028

EPHEMERIS_TYPE = 0
CLASSIFICATION_TYPE = U
NORAD_CAT_ID   = 67681
ELEMENT_SET_NO = 999
REV_AT_EPOCH   = 266
BSTAR          = .55059E-3
MEAN_MOTION_DOT = .12897E-3
MEAN_MOTION_DDOT = 0

CCSDS_OMM_VERS = 2.0
CREATION_DATE  = 
ORIGINATOR     = 

OBJECT_NAME    = 2026-023J
OBJECT_ID      = 2026-023J
CENTER_NAME    = EARTH
REF_FRAME      = TEME
TIME_SYSTEM    = UTC
MEAN_ELEMENT_THEORY = SGP/SGP4

EPOCH          = 2026-02-23T11:00:12.822336
MEAN_MOTION    = 15.22831843
ECCENTRICITY   = .0023358
INCLINATION    = 96.6374
RA_OF_ASC_NODE = 131.5663
ARG_OF_PERICENTER = 162.9682
MEAN_ANOMALY   = 197.2346

EPHEMERIS_TYPE = 0
CLASSIFICATION_TYPE = U
NORAD_CAT_ID   = 67682
ELEMENT_SET_NO = 999
REV_AT_EPOCH   = 267
BSTAR          = .58312E-3
MEAN_MOTION_DOT = .13699E-3
MEAN_MOTION_DDOT = 0

CCSDS_OMM_VERS = 2.0
CREATION_DATE  = 
ORIGINATOR     = 

OBJECT_NAME    = ISS OBJECT XZ
OBJECT_ID      = 1998-067XZ
CENTER_NAME    = EARTH
REF_FRAME      = TEME
TIME_SYSTEM    = UTC
MEAN_ELEMENT_THEORY = SGP/SGP4

EPOCH          = 2026-02-23T05:34:24.055968
MEAN_MOTION    = 15.50601510
ECCENTRICITY   = .0009924
INCLINATION    = 51.6315
RA_OF_ASC_NODE = 143.6172
ARG_OF_PERICENTER = 137.9612
MEAN_ANOMALY   = 222.2140

EPHEMERIS_TYPE = 0
CLASSIFICATION_TYPE = U
NORAD_CAT_ID   = 67683
ELEMENT_SET_NO = 999
REV_AT_EPOCH   = 254
BSTAR          = .71932E-3
MEAN_MOTION_DOT = .41772E-3
MEAN_MOTION_DDOT = 0

CCSDS_OMM_VERS = 2.0
CREATION_DATE  = 
ORIGINATOR     = 

OBJECT_NAME    = GXIBA-1
OBJECT_ID      = 1998-067YA
CENTER_NAME    = EARTH
REF_FRAME      = TEME
TIME_SYSTEM    = UTC
MEAN_ELEMENT_THEORY = SGP/SGP4

EPOCH          = 2026-02-22T15:26:02.582880
MEAN_MOTION    = 15.51889665
ECCENTRICITY   = .0011656
INCLINATION    = 51.6313
RA_OF_ASC_NODE = 146.4331
ARG_OF_PERICENTER = 128.7037
MEAN_ANOMALY   = 231.4997

EPHEMERIS_TYPE = 0
CLASSIFICATION_TYPE = U
NORAD_CAT_ID   = 67684
ELEMENT_SET_NO = 999
REV_AT_EPOCH   = 245
BSTAR          = .12925E-2
MEAN_MOTION_DOT = .79428E-3
MEAN_MOTION_DDOT = 0

