STARLINK-36616          
1 67672U 26022AA  26054.08591735  .00113940  00000+0  75349-3 0  9993
2 67672  97.2856  87.3966 0001671  75.9129 284.2322 15.75224481  3256
COSMOS 2600             
1 67674U 26023A   26054.36555476  .00103079  00000+0  47226-3 0  9994
2 67674  96.6456 130.4572 0001642  59.9565 300.1869 15.83416876  2785
2026-023B               
1 67675U 26023B   26054.46084808  .00013792  00000+0  59248-3 0  9991
2 67675  96.6379 129.0578 0018447 180.6017 179.5202 15.22615099  2695
2026-023C               
1 67676U 26023C   26054.46009369  .00014777  00000+0  63260-3 0  9994
2 67676  96.6416 129.0754 0019658 170.7276 189.4329 15.22696535  2858
2026-023D               
1 67677U 26023D   26054.39583543  .00012741  00000+0  54845-3 0  9996
2 67677  96.6446 129.0031 0019788 176.0196 184.1204 15.22538281  2671
2026-023E               
1 67678U 26023E   26054.46040344  .00015224  00000+0  65209-3 0  9997
2 67678  96.6339 129.0537 0019613 175.1773 184.9658 15.22674365  2688
2026-023F               
1 67679U 26023F   26054.45879438  .00016574  00000+0  70584-3 0  9992
2 67679  96.6346 131.5521 0021521 170.1347 190.0319 15.22816776  2676
2026-023G               
1 67680U 26023G   26054.45923110  .00015010  00000+0  63976-3 0  9992
2 67680  96.6273 131.5431 0023130 166.6864 193.4990 15.22772847  2671
2026-023H               
1 67681U 26023H   26054.39336609  .00012897  00000+0  55059-3 0  9990
2 67681  96.6419 131.4991 0023141 166.2844 193.9028 15.22749305  2669
2026-023J               
1 67682U 26023J   26054.45848174  .00013699  00000+0  58312-3 0  9999
2 67682  96.6374 131.5663 0023358 162.9682 197.2346 15.22831843  2670
ISS OBJECT XZ           
1 67683U 98067XZ  26054.23222287  .00041772  00000+0  71932-3 0  9990
2 67683  51.6315 143.6172 0009924 137.9612 222.2140 15.50601510  2548
GXIBA-1                 
1 67684U 98067YA  26053.64308545  .00079428  00000+0  12925-2 0  9992
2 67684  51.6313 146.4331 0011656 128.7037 231.4997 15.51889665  2451
